start=new Date('2022-07-29T00:00:00.000Z').valueOf();
sats=[{"BSTAR":"0.00007378200000","OBJECT_ID":"2020-057C","OBJECT_NAME":"STARLINK-1593","APOAPSIS":"548.224","REV_AT_EPOCH":"10838","MEAN_MOTION_DDOT":"0.0000000000000","SITE":"AFETR","EPOCH":"2022-07-28T18:38:12.865056","ELEMENT_SET_NO":"999","GP_ID":"209064334","NORAD_CAT_ID":"46119","EPHEMERIS_TYPE":"0","PERIOD":"95.592","PERIAPSIS":"546.231","MEAN_MOTION":"15.06395442","RA_OF_ASC_NODE":"121.9362","INCLINATION":"53.0553","TIME_SYSTEM":"UTC","DECAY_DATE":null,"ECCENTRICITY":"0.00014390","COUNTRY_CODE":"US","FILE":"3524113","CLASSIFICATION_TYPE":"U","TLE_LINE2":"2 46119  53.0553 121.9362 0001439  71.9415 288.1731 15.06395442108381","REF_FRAME":"TEME","MEAN_MOTION_DOT":"0.00000818","SEMIMAJOR_AXIS":"6925.363","LAUNCH_DATE":"2020-08-18","OBJECT_TYPE":"PAYLOAD","TLE_LINE1":"1 46119U 20057C   22209.77653779  .00000818  00000-0  73782-4 0  9999","MEAN_ELEMENT_THEORY":"SGP4","RCS_SIZE":"LARGE","ARG_OF_PERICENTER":"71.9415","MEAN_ANOMALY":"288.1731","CENTER_NAME":"EARTH"},{"GP_ID":"209063085","NORAD_CAT_ID":"46120","ELEMENT_SET_NO":"999","RA_OF_ASC_NODE":"122.0149","PERIAPSIS":"546.096","MEAN_MOTION":"15.06394119","PERIOD":"95.593","EPHEMERIS_TYPE":"0","APOAPSIS":"548.367","OBJECT_NAME":"STARLINK-1601","OBJECT_ID":"2020-057D","BSTAR":"-0.00003026700000","EPOCH":"2022-07-28T18:16:58.882368","SITE":"AFETR","MEAN_MOTION_DDOT":"0.0000000000000","REV_AT_EPOCH":"10840","RCS_SIZE":"LARGE","MEAN_ELEMENT_THEORY":"SGP4","TLE_LINE1":"1 46120U 20057D   22209.76179262 -.00000732  00000-0 -30267-4 0  9998","CENTER_NAME":"EARTH","MEAN_ANOMALY":"300.2231","ARG_OF_PERICENTER":"59.8920","COUNTRY_CODE":"US","ECCENTRICITY":"0.00016400","TIME_SYSTEM":"UTC","DECAY_DATE":null,"INCLINATION":"53.0544","OBJECT_TYPE":"PAYLOAD","LAUNCH_DATE":"2020-08-18","SEMIMAJOR_AXIS":"6925.367","MEAN_MOTION_DOT":"-0.00000732","REF_FRAME":"TEME","TLE_LINE2":"2 46120  53.0544 122.0149 0001640  59.8920 300.2231 15.06394119108402","CLASSIFICATION_TYPE":"U","FILE":"3524113"},{"NORAD_CAT_ID":"46121","GP_ID":"209063336","ELEMENT_SET_NO":"999","RA_OF_ASC_NODE":"101.8624","PERIAPSIS":"546.030","MEAN_MOTION":"15.06400371","PERIOD":"95.592","EPHEMERIS_TYPE":"0","APOAPSIS":"548.395","OBJECT_ID":"2020-057E","OBJECT_NAME":"STARLINK-1602","BSTAR":"0.00009464200000","EPOCH":"2022-07-28T19:07:25.006080","SITE":"AFETR","MEAN_MOTION_DDOT":"0.0000000000000","REV_AT_EPOCH":"10740","RCS_SIZE":"LARGE","TLE_LINE1":"1 46121U 20057E   22209.79681720  .00001128  00000-0  94642-4 0  9994","MEAN_ELEMENT_THEORY":"SGP4","CENTER_NAME":"EARTH","MEAN_ANOMALY":"282.3176","ARG_OF_PERICENTER":"77.8004","COUNTRY_CODE":"US","ECCENTRICITY":"0.00017070","TIME_SYSTEM":"UTC","DECAY_DATE":null,"INCLINATION":"53.0557","OBJECT_TYPE":"PAYLOAD","LAUNCH_DATE":"2020-08-18","SEMIMAJOR_AXIS":"6925.347","MEAN_MOTION_DOT":"0.00001128","REF_FRAME":"TEME","TLE_LINE2":"2 46121  53.0557 101.8624 0001707  77.8004 282.3176 15.06400371107402","CLASSIFICATION_TYPE":"U","FILE":"3524113"},{"CLASSIFICATION_TYPE":"U","FILE":"3524113","TLE_LINE2":"2 46122  53.0551  81.7947 0001583  78.8105 281.3062 15.06396063108941","REF_FRAME":"TEME","MEAN_MOTION_DOT":"-0.00001026","SEMIMAJOR_AXIS":"6925.361","LAUNCH_DATE":"2020-08-18","OBJECT_TYPE":"PAYLOAD","INCLINATION":"53.0551","TIME_SYSTEM":"UTC","DECAY_DATE":null,"COUNTRY_CODE":"US","ECCENTRICITY":"0.00015830","ARG_OF_PERICENTER":"78.8105","MEAN_ANOMALY":"281.3062","CENTER_NAME":"EARTH","MEAN_ELEMENT_THEORY":"SGP4","TLE_LINE1":"1 46122U 20057F   22209.80602902 -.00001026  00000-0 -49981-4 0  9997","RCS_SIZE":"LARGE","REV_AT_EPOCH":"10894","MEAN_MOTION_DDOT":"0.0000000000000","SITE":"AFETR","EPOCH":"2022-07-28T19:20:40.907328","BSTAR":"-0.00004998100000","OBJECT_NAME":"STARLINK-1604","OBJECT_ID":"2020-057F","APOAPSIS":"548.322","EPHEMERIS_TYPE":"0","PERIOD":"95.592","PERIAPSIS":"546.129","MEAN_MOTION":"15.06396063","RA_OF_ASC_NODE":"81.7947","ELEMENT_SET_NO":"999","NORAD_CAT_ID":"46122","GP_ID":"209064586"},{"INCLINATION":"53.0546","ECCENTRICITY":"0.00017760","COUNTRY_CODE":"US","TIME_SYSTEM":"UTC","DECAY_DATE":null,"CLASSIFICATION_TYPE":"U","FILE":"3524113","REF_FRAME":"TEME","TLE_LINE2":"2 46123  53.0546  82.4749 0001776  80.3423 279.7766 15.06398192108946","MEAN_MOTION_DOT":"0.00001806","OBJECT_TYPE":"PAYLOAD","LAUNCH_DATE":"2020-08-18","SEMIMAJOR_AXIS":"6925.354","MEAN_ELEMENT_THEORY":"SGP4","TLE_LINE1":"1 46123U 20057G   22209.65859037  .00001806  00000-0  14011-3 0  9993","RCS_SIZE":"LARGE","MEAN_ANOMALY":"279.7766","ARG_OF_PERICENTER":"80.3423","CENTER_NAME":"EARTH","BSTAR":"0.00014011000000","APOAPSIS":"548.449","OBJECT_ID":"2020-057G","OBJECT_NAME":"STARLINK-1605","REV_AT_EPOCH":"10894","MEAN_MOTION_DDOT":"0.0000000000000","SITE":"AFETR","EPOCH":"2022-07-28T15:48:22.207968","ELEMENT_SET_NO":"999","GP_ID":"209064834","NORAD_CAT_ID":"46123","PERIOD":"95.592","EPHEMERIS_TYPE":"0","PERIAPSIS":"545.989","MEAN_MOTION":"15.06398192","RA_OF_ASC_NODE":"82.4749"},{"TLE_LINE2":"2 46124  53.0537  82.1324 0001515  77.4926 282.6232 15.06401534107685","REF_FRAME":"TEME","CLASSIFICATION_TYPE":"U","FILE":"3524113","SEMIMAJOR_AXIS":"6925.344","LAUNCH_DATE":"2020-08-18","OBJECT_TYPE":"PAYLOAD","MEAN_MOTION_DOT":"0.00001030","TIME_SYSTEM":"UTC","DECAY_DATE":null,"COUNTRY_CODE":"US","ECCENTRICITY":"0.00015150","INCLINATION":"53.0537","CENTER_NAME":"EARTH","ARG_OF_PERICENTER":"77.4926","MEAN_ANOMALY":"282.6232","RCS_SIZE":"LARGE","TLE_LINE1":"1 46124U 20057H   22209.73230186  .00001030  00000-0  88010-4 0  9991","MEAN_ELEMENT_THEORY":"SGP4","MEAN_MOTION_DDOT":"0.0000000000000","REV_AT_EPOCH":"10768","EPOCH":"2022-07-28T17:34:30.880704","SITE":"AFETR","BSTAR":"0.00008801000000","OBJECT_ID":"2020-057H","OBJECT_NAME":"STARLINK-1614","APOAPSIS":"548.258","EPHEMERIS_TYPE":"0","PERIOD":"95.592","RA_OF_ASC_NODE":"82.1324","MEAN_MOTION":"15.06401534","PERIAPSIS":"546.160","ELEMENT_SET_NO":"999","GP_ID":"209063586","NORAD_CAT_ID":"46124"},{"EPHEMERIS_TYPE":"0","PERIOD":"95.593","RA_OF_ASC_NODE":"121.9337","MEAN_MOTION":"15.06389847","PERIAPSIS":"546.031","ELEMENT_SET_NO":"999","GP_ID":"209063836","NORAD_CAT_ID":"46125","MEAN_MOTION_DDOT":"0.0000000000000","REV_AT_EPOCH":"10838","EPOCH":"2022-07-28T18:43:31.823616","SITE":"AFETR","BSTAR":"0.00000218360000","OBJECT_NAME":"STARLINK-1618","OBJECT_ID":"2020-057J","APOAPSIS":"548.458","CENTER_NAME":"EARTH","ARG_OF_PERICENTER":"82.3509","MEAN_ANOMALY":"277.7679","RCS_SIZE":"LARGE","TLE_LINE1":"1 46125U 20057J   22209.78022944 -.00000249  00000-0  21836-5 0  9994","MEAN_ELEMENT_THEORY":"SGP4","TLE_LINE2":"2 46125  53.0563 121.9337 0001752  82.3509 277.7679 15.06389847108386","REF_FRAME":"TEME","FILE":"3524113","CLASSIFICATION_TYPE":"U","SEMIMAJOR_AXIS":"6925.380","OBJECT_TYPE":"PAYLOAD","LAUNCH_DATE":"2020-08-18","MEAN_MOTION_DOT":"-0.00000249","DECAY_DATE":null,"TIME_SYSTEM":"UTC","COUNTRY_CODE":"US","ECCENTRICITY":"0.00017520","INCLINATION":"53.0563"},{"APOAPSIS":"548.223","OBJECT_NAME":"STARLINK-1619","OBJECT_ID":"2020-057K","BSTAR":"0.00014549000000","EPOCH":"2022-07-28T19:41:54.069216","SITE":"AFETR","MEAN_MOTION_DDOT":"0.0000000000000","REV_AT_EPOCH":"10713","GP_ID":"209064087","NORAD_CAT_ID":"46126","ELEMENT_SET_NO":"999","RA_OF_ASC_NODE":"121.7486","MEAN_MOTION":"15.06410971","PERIAPSIS":"546.137","PERIOD":"95.591","EPHEMERIS_TYPE":"0","ECCENTRICITY":"0.00015060","COUNTRY_CODE":"US","TIME_SYSTEM":"UTC","DECAY_DATE":null,"INCLINATION":"53.0547","LAUNCH_DATE":"2020-08-18","OBJECT_TYPE":"PAYLOAD","SEMIMAJOR_AXIS":"6925.315","MEAN_MOTION_DOT":"0.00001887","REF_FRAME":"TEME","TLE_LINE2":"2 46126  53.0547 121.7486 0001506  84.3123 275.8037 15.06410971107135","FILE":"3524113","CLASSIFICATION_TYPE":"U","RCS_SIZE":"LARGE","MEAN_ELEMENT_THEORY":"SGP4","TLE_LINE1":"1 46126U 20057K   22209.82076469  .00001887  00000-0  14549-3 0  9990","CENTER_NAME":"EARTH","MEAN_ANOMALY":"275.8037","ARG_OF_PERICENTER":"84.3123"},{"COUNTRY_CODE":"US","ECCENTRICITY":"0.00015990","DECAY_DATE":null,"TIME_SYSTEM":"UTC","INCLINATION":"53.0543","OBJECT_TYPE":"PAYLOAD","LAUNCH_DATE":"2020-08-18","SEMIMAJOR_AXIS":"6925.320","MEAN_MOTION_DOT":"0.00001432","REF_FRAME":"TEME","TLE_LINE2":"2 46127  53.0543 102.0761 0001599  75.3398 284.7768 15.06409449107392","FILE":"3524113","CLASSIFICATION_TYPE":"U","RCS_SIZE":"LARGE","MEAN_ELEMENT_THEORY":"SGP4","TLE_LINE1":"1 46127U 20057L   22209.74520300  .00001432  00000-0  11501-3 0  9991","CENTER_NAME":"EARTH","MEAN_ANOMALY":"284.7768","ARG_OF_PERICENTER":"75.3398","APOAPSIS":"548.292","OBJECT_NAME":"STARLINK-1621","OBJECT_ID":"2020-057L","BSTAR":"0.00011501000000","EPOCH":"2022-07-28T17:53:05.539200","SITE":"AFETR","MEAN_MOTION_DDOT":"0.0000000000000","REV_AT_EPOCH":"10739","GP_ID":"209064335","NORAD_CAT_ID":"46127","ELEMENT_SET_NO":"999","RA_OF_ASC_NODE":"102.0761","MEAN_MOTION":"15.06409449","PERIAPSIS":"546.077","PERIOD":"95.592","EPHEMERIS_TYPE":"0"},{"MEAN_MOTION_DDOT":"0.0000000000000","REV_AT_EPOCH":"10768","EPOCH":"2022-07-28T18:32:54.466368","SITE":"AFETR","BSTAR":"0.00010557000000","APOAPSIS":"548.034","OBJECT_ID":"2020-057M","OBJECT_NAME":"STARLINK-1622","PERIOD":"95.592","EPHEMERIS_TYPE":"0","RA_OF_ASC_NODE":"81.9485","MEAN_MOTION":"15.06397559","PERIAPSIS":"546.408","ELEMENT_SET_NO":"999","GP_ID":"209063086","NORAD_CAT_ID":"46128","REF_FRAME":"TEME","TLE_LINE2":"2 46128  53.0534  81.9485 0001174  93.7892 266.3231 15.06397559107684","FILE":"3524113","CLASSIFICATION_TYPE":"U","LAUNCH_DATE":"2020-08-18","OBJECT_TYPE":"PAYLOAD","SEMIMAJOR_AXIS":"6925.356","MEAN_MOTION_DOT":"0.00001291","ECCENTRICITY":"0.00011740","COUNTRY_CODE":"US","DECAY_DATE":null,"TIME_SYSTEM":"UTC","INCLINATION":"53.0534","CENTER_NAME":"EARTH","MEAN_ANOMALY":"266.3231","ARG_OF_PERICENTER":"93.7892","RCS_SIZE":"LARGE","MEAN_ELEMENT_THEORY":"SGP4","TLE_LINE1":"1 46128U 20057M   22209.77285262  .00001291  00000-0  10557-3 0  9993"}];
